NORAD_CAT_ID,OBJECT_NAME,OBJECT_TYPE,EPOCH,MEAN_MOTION,ECCENTRICITY,INCLINATION,RA_OF_ASC_NODE,ARG_OF_PERICENTER,MEAN_ANOMALY,BSTAR,MEAN_MOTION_DOT,MEAN_MOTION_DDOT,TLE_LINE0,TLE_LINE1,TLE_LINE2,SEMIMAJOR_AXIS,PERIOD,APOGEE,PERIGEE,DECAYED
53593.0,STARLINK-4671,PAYLOAD,2024-02-15 05:01:41,15.08845066,0.0001468,53.2176,26.7125,100.7329,259.3828,1.3652e-05,-7.1e-07,0.0,0 STARLINK-4671,1 53593U 22104F   24046.20950394 -.00000071  00000-0  13652-4 0  9992,2 53593  53.2176  26.7125 0001468 100.7329 259.3828 15.08845066 82195,6917.865,95.437,540.745,538.714,0.0
53593.0,STARLINK-4671,PAYLOAD,2024-02-15 16:09:22,15.08846767,0.0001455,53.2178,24.6313,102.2674,257.8481,4.3022e-05,3.97e-06,0.0,0 STARLINK-4671,1 53593U 22104F   24046.67318117  .00000397  00000-0  43022-4 0  9998,2 53593  53.2178  24.6313 0001455 102.2674 257.8481 15.08846767 81241,6917.86,95.437,540.731,538.718,0.0
53593.0,STARLINK-4671,PAYLOAD,2024-02-15 22:30:56,15.08842579,0.0001683,53.2193,23.4416,103.4676,256.6504,1.7442e-05,-1e-07,0.0,0 STARLINK-4671,1 53593U 22104F   24046.93814824 -.00000010  00000-0  17442-4 0  9993,2 53593  53.2193  23.4416 0001683 103.4676 256.6504 15.08842579 82305,6917.873,95.437,540.902,538.573,0.0
53593.0,STARLINK-4671,PAYLOAD,2024-02-16 08:03:14,15.08849819,0.0001643,53.2196,21.6565,108.1015,252.0156,5.9234e-05,6.55e-06,0.0,0 STARLINK-4671,1 53593U 22104F   24047.33558034  .00000655  00000-0  59234-4 0  9995,2 53593  53.2196  21.6565 0001643 108.1015 252.0156 15.08849819 82361,6917.85,95.437,540.852,538.579,0.0
53593.0,STARLINK-4671,PAYLOAD,2024-02-17 04:43:15,15.08836977,0.0001425,53.2177,17.7914,105.8067,254.3082,6.7107e-05,7.8e-06,0.0,0 STARLINK-4671,1 53593U 22104F   24048.19671106  .00000780  00000-0  67107-4 0  9993,2 53593  53.2177  17.7914 0001425 105.8067 254.3082 15.08836977 81478,6917.89,95.438,540.74,538.769,0.0
53593.0,STARLINK-4671,PAYLOAD,2024-02-17 22:12:30,15.08838573,0.0001542,53.218,14.5209,111.5662,248.5495,7.3826e-05,8.87e-06,0.0,0 STARLINK-4671,1 53593U 22104F   24048.92535117  .00000887  00000-0  73826-4 0  9998,2 53593  53.2180  14.5209 0001542 111.5662 248.5495 15.08838573 82602,6917.885,95.438,540.816,538.683,0.0
53593.0,STARLINK-4671,PAYLOAD,2024-02-18 04:34:02,15.08845586,0.0001468,53.2182,13.3358,104.4413,255.6742,0.0001822,2.613e-05,0.0,0 STARLINK-4671,1 53593U 22104F   24049.19030607  .00002613  00000-0  18220-3 0  9997,2 53593  53.2182  13.3358 0001468 104.4413 255.6742 15.08845586 81625,6917.863,95.437,540.744,538.713,0.0
53593.0,STARLINK-4671,PAYLOAD,2024-02-18 14:06:21,15.08849095,0.0001485,53.2177,11.5525,109.0347,251.0806,9.1955e-05,1.176e-05,0.0,0 STARLINK-4671,1 53593U 22104F   24049.58774485  .00001176  00000-0  91955-4 0  9999,2 53593  53.2177  11.5525 0001485 109.0347 251.0806 15.08849095 82701,6917.853,95.437,540.745,538.69,0.0
53593.0,STARLINK-4671,PAYLOAD,2024-02-19 04:24:50,15.08837934,0.0001653,53.2203,8.8777,112.7896,247.3271,9.8853e-05,1.285e-05,0.0,0 STARLINK-4671,1 53593U 22104F   24050.18391241  .00001285  00000-0  98853-4 0  9997,2 53593  53.2203   8.8777 0001653 112.7896 247.3271 15.08837934 81775,6917.887,95.438,540.895,538.608,0.0
53593.0,STARLINK-4671,PAYLOAD,2024-02-19 07:35:35,15.08849047,0.0001404,53.2181,8.2772,98.4763,261.6388,0.00015691,2.211e-05,0.0,0 STARLINK-4671,1 53593U 22104F   24050.31638334  .00002211  00000-0  15691-3 0  9997,2 53593  53.2181   8.2772 0001404  98.4763 261.6388 15.08849047 81794,6917.853,95.437,540.689,538.746,0.0
53593.0,STARLINK-4671,PAYLOAD,2024-02-19 13:57:08,15.08840023,0.0001369,53.2175,7.086,84.4846,275.6302,8.127e-05,1.006e-05,0.0,0 STARLINK-4671,1 53593U 22104F   24050.58135147  .00001006  00000-0  81270-4 0  9998,2 53593  53.2175   7.0860 0001369  84.4846 275.6302 15.08840023 82853,6917.88,95.438,540.692,538.798,0.0
53593.0,STARLINK-4671,PAYLOAD,2024-02-20 04:15:37,15.08835262,0.0001672,53.2201,4.413,87.3934,272.725,-2.5461e-05,-6.93e-06,0.0,0 STARLINK-4671,1 53593U 22104F   24051.17751974 -.00000693  00000-0 -25461-4 0  9999,2 53593  53.2201   4.4130 0001672  87.3934 272.7250 15.08835262 81927,6917.895,95.438,540.917,538.603,0.0
53593.0,STARLINK-4671,PAYLOAD,2024-02-20 07:26:23,15.08847377,0.0001269,53.2182,3.8161,85.8612,274.2525,5.0204e-05,5.11e-06,0.0,0 STARLINK-4671,1 53593U 22104F   24051.30998850  .00000511  00000-0  50204-4 0  9990,2 53593  53.2182   3.8161 0001269  85.8612 274.2525 15.08847377 81944,6917.858,95.437,540.601,538.845,0.0
53593.0,STARLINK-4671,PAYLOAD,2024-02-20 13:47:55,15.08842385,0.0001283,53.2185,2.6252,86.7499,273.364,5.1391e-06,-2.06e-06,0.0,0 STARLINK-4671,1 53593U 22104F   24051.57495207 -.00000206  00000-0  51391-5 0  9998,2 53593  53.2185   2.6252 0001283  86.7499 273.3640 15.08842385 83005,6917.873,95.437,540.626,538.851,0.0
53593.0,STARLINK-4671,PAYLOAD,2024-02-21 04:06:23,15.08852283,0.0001684,53.2202,359.9515,91.6469,268.4716,0.00016234,2.297e-05,0.0,0 STARLINK-4671,1 53593U 22104F   24052.17110317  .00002297  00000-0  16234-3 0  9997,2 53593  53.2202 359.9515 0001684  91.6469 268.4716 15.08852283 82075,6917.843,95.437,540.873,538.543,0.0
53593.0,STARLINK-4671,PAYLOAD,2024-02-21 13:38:41,15.08864872,0.0001428,53.2193,358.1665,87.6727,272.4429,0.00015744,2.22e-05,0.0,0 STARLINK-4671,1 53593U 22104F   24052.56853074  .00002220  00000-0  15744-3 0  9995,2 53593  53.2193 358.1665 0001428  87.6727 272.4429 15.08864872 83152,6917.804,95.436,540.657,538.682,0.0
53593.0,STARLINK-4671,PAYLOAD,2024-02-22 05:32:31,15.08863552,8.23e-05,53.2189,355.1914,97.5251,262.5834,0.00022527,3.302e-05,0.0,0 STARLINK-4671,1 53593U 22104F   24053.23092573  .00003302  00000-0  22527-3 0  9998,2 53593  53.2189 355.1914 0000823  97.5251 262.5834 15.08863552 82233,6917.808,95.436,540.243,539.104,0.0
53593.0,STARLINK-4671,PAYLOAD,2024-02-22 13:29:28,15.08850081,0.0001451,53.2187,353.7029,105.408,254.7072,3.846e-05,3.24e-06,0.0,0 STARLINK-4671,1 53593U 22104F   24053.56213108  .00000324  00000-0  38460-4 0  9998,2 53593  53.2187 353.7029 0001451 105.4080 254.7072 15.08850081 83308,6917.85,95.437,540.718,538.711,0.0
53593.0,STARLINK-4671,PAYLOAD,2024-02-23 05:23:19,15.08848028,0.0001392,53.219,350.7333,90.7918,269.3234,-0.00011803,-2.166e-05,0.0,0 STARLINK-4671,1 53593U 22104F   24054.22453509 -.00002166  00000-0 -11803-3 0  9992,2 53593  53.2190 350.7333 0001392  90.7918 269.3234 15.08848028 82384,6917.856,95.437,540.684,538.758,0.0
53593.0,STARLINK-4671,PAYLOAD,2024-02-23 22:52:34,15.08864089,0.0001204,53.2184,347.4617,88.8389,271.2741,-0.0005705,-9.362e-05,0.0,0 STARLINK-4671,1 53593U 22104F   24054.95317132 -.00009362  00000-0 -57050-3 0  9992,2 53593  53.2184 347.4617 0001204  88.8389 271.2741 15.08864089 83513,6917.807,95.436,540.505,538.839,0.0
53593.0,STARLINK-4671,PAYLOAD,2024-02-24 02:03:20,15.08833688,0.000157,53.2193,346.8653,97.2782,262.8388,-1.6831e-05,-5.56e-06,0.0,0 STARLINK-4671,1 53593U 22104F   24055.08565803 -.00000556  00000-0 -16831-4 0  9996,2 53593  53.2193 346.8653 0001570  97.2782 262.8388 15.08833688 82516,6917.9,95.438,540.851,538.679,0.0
53593.0,STARLINK-4671,PAYLOAD,2024-02-24 05:14:06,15.08836836,0.0001505,53.2192,346.2687,93.5576,266.5588,5.8054e-06,-1.96e-06,0.0,0 STARLINK-4671,1 53593U 22104F   24055.21813626 -.00000196  00000-0  58054-5 0  9993,2 53593  53.2192 346.2687 0001505  93.5576 266.5588 15.08836836 83550,6917.89,95.438,540.796,538.714,0.0
53593.0,STARLINK-4671,PAYLOAD,2024-02-25 05:04:54,15.08828401,0.0001556,53.2193,341.8083,89.4083,270.7088,0.00012155,1.646e-05,0.0,0 STARLINK-4671,1 53593U 22104F   24056.21174277  .00001646  00000-0  12155-3 0  9996,2 53593  53.2193 341.8083 0001556  89.4083 270.7088 15.08828401 82689,6917.916,95.438,540.857,538.704,0.0
53593.0,STARLINK-4671,PAYLOAD,2024-02-25 11:26:27,15.08830309,0.000158,53.2194,340.6194,85.851,274.2662,0.00012586,1.715e-05,0.0,0 STARLINK-4671,1 53593U 22104F   24056.47670381  .00001715  00000-0  12586-3 0  9996,2 53593  53.2194 340.6194 0001580  85.8510 274.2662 15.08830309 83747,6917.91,95.438,540.868,538.682,0.0
53593.0,STARLINK-4671,PAYLOAD,2024-02-25 22:34:09,15.08829695,0.000147,53.219,338.54,107.1775,252.9378,-2.4439e-06,-3.27e-06,0.0,0 STARLINK-4671,1 53593U 22104F   24056.94039073 -.00000327  00000-0 -24439-5 0  9997,2 53593  53.2190 338.5400 0001470 107.1775 252.9378 15.08829695 83819,6917.912,95.438,540.794,538.76,0.0
53593.0,STARLINK-4671,PAYLOAD,2024-02-26 04:55:42,15.08830372,0.0001255,53.2183,337.3523,99.5928,260.5206,-2.6978e-05,-7.17e-06,0.0,0 STARLINK-4671,1 53593U 22104F   24057.20535253 -.00000717  00000-0 -26978-4 0  9990,2 53593  53.2183 337.3523 0001255  99.5928 260.5206 15.08830372 83852,6917.91,95.438,540.643,538.907,0.0
53593.0,STARLINK-4671,PAYLOAD,2024-02-26 17:38:47,15.08828974,0.0001234,53.2189,334.9735,98.6207,261.4925,1.8391e-05,5e-08,0.0,0 STARLINK-4671,1 53593U 22104F   24057.73527558  .00000005  00000-0  18391-4 0  9995,2 53593  53.2189 334.9735 0001234  98.6207 261.4925 15.08828974 82912,6917.914,95.438,540.633,538.925,0.0
53593.0,STARLINK-4671,PAYLOAD,2024-02-26 22:24:57,15.08827799,0.0001279,53.2187,334.082,102.3722,257.7413,8.6619e-05,1.091e-05,0.0,0 STARLINK-4671,1 53593U 22104F   24057.93399460  .00001091  00000-0  86619-4 0  9990,2 53593  53.2187 334.0820 0001279 102.3722 257.7413 15.08827799 83960,6917.918,95.438,540.667,538.898,0.0
53593.0,STARLINK-4671,PAYLOAD,2024-02-27 11:08:02,15.0883143,0.0001256,53.2186,331.703,97.027,263.0865,9.7244e-05,1.26e-05,0.0,0 STARLINK-4671,1 53593U 22104F   24058.46391583  .00001260  00000-0  97244-4 0  9991,2 53593  53.2186 331.7030 0001256  97.0270 263.0865 15.08831430 84047,6917.907,95.438,540.64,538.903,0.0
53593.0,STARLINK-4671,PAYLOAD,2024-02-27 22:15:44,15.08832826,0.0001205,53.2181,329.621,95.3005,264.8124,0.00011342,1.517e-05,0.0,0 STARLINK-4671,1 53593U 22104F   24058.92759693  .00001517  00000-0  11342-3 0  9991,2 53593  53.2181 329.6210 0001205  95.3005 264.8124 15.08832826 84114,6917.902,95.438,540.601,538.934,0.0
